     2.10           N: GPS NAV DATA                         RINEX VERSION / TYPE
teqc  2008Oct2      gpsops              20090117 00:05:48UTCPGM / RUN BY / DATE
Linux 2.4.20-8|Pentium IV|gcc -static|Linux|486/DX+         COMMENT
soc2rnx ver 1.20    gpsops              17-Jan-2009 00:05:42COMMENT
Forced Modulo Decimation to 30 seconds                      COMMENT
MADR                                    MARKER NAME         COMMENT
13407S012                               MARKER NUMBER       COMMENT
4849202.3940 -360328.9929 4114913.1862                      COMMENT
                                                            COMMENT
This data is provided as a public service by NASA/JPL.      COMMENT
No warranty is expressed or implied regarding suitability   COMMENT
for use.  For further information, contact:                 COMMENT
Dave Stowers, NASA/JPL m/s 238-600                          COMMENT
4800 Oak Grove Drive, Pasadena CA 91109 USA                 COMMENT
                                                            END OF HEADER
18 09  1 16 14  0  0.0-9.253853932023D-05 3.637978807092D-12 0.000000000000D+00
    9.000000000000D+01-3.093750000000D+00 5.072711298787D-09-1.044075766426D+00
   -1.527369022369D-07 9.891203488223D-03 4.796311259270D-06 5.153747917175D+03
    4.824000000000D+05 2.961605787277D-07 3.062625546967D+00 1.266598701477D-07
    9.445146719244D-01 2.786875000000D+02-2.437021966330D+00-8.506782913082D-09
   -2.975123925853D-10 1.000000000000D+00 1.514000000000D+03 0.000000000000D+00
    2.000000000000D+00 0.000000000000D+00-1.071020960808D-08 9.000000000000D+01
    4.752000000000D+05
22 09  1 16 14  0  0.0 2.065435983241D-04-5.684341886081D-13 0.000000000000D+00
    1.760000000000D+02-3.437500000000D+00 5.016280376784D-09-2.190273039744D+00
   -2.440065145493D-07 4.939803155139D-03 4.883855581284D-06 5.153666145325D+03
    4.824000000000D+05 1.173466444016D-07 3.068597449207D+00-4.284083843231D-08
    9.421744199292D-01 2.757500000000D+02-1.813433335909D+00-8.349276352302D-09
   -2.628680923683D-10 1.000000000000D+00 1.514000000000D+03 0.000000000000D+00
    2.800000000000D+00 0.000000000000D+00-1.816079020500D-08 1.760000000000D+02
    4.752000000000D+05
32 09  1 16 14  0  0.0 3.031012602150D-04-2.728484105319D-12 0.000000000000D+00
    4.200000000000D+01-1.225000000000D+01 4.468043254793D-09 1.934799508188D+00
   -7.878988981247D-07 1.365421467926D-02 4.846602678299D-06 5.153658069611D+03
    4.824000000000D+05 2.440065145493D-07 3.115615634811D+00-1.862645149231D-08
    9.661133231835D-01 2.845312500000D+02-1.211721318497D+00-7.989975671701D-09
   -3.650152043484D-10 1.000000000000D+00 1.514000000000D+03 0.000000000000D+00
    2.800000000000D+00 0.000000000000D+00-3.259629011154D-09 4.200000000000D+01
    4.752000000000D+05
20 09  1 16 14  0  0.0 9.351223707199D-05-1.023181539495D-12 0.000000000000D+00
    1.030000000000D+02-9.875000000000D+00 5.137356848676D-09-8.988673297980D-01
   -4.898756742477D-07 3.858039854094D-03 4.736706614494D-06 5.153694879532D+03
    4.824000000000D+05-2.421438694000D-08 3.008894444302D+00 3.725290298462D-08
    9.440795722922D-01 2.785625000000D+02 1.308570404261D+00-8.539284266894D-09
   -2.671539851787D-10 1.000000000000D+00 1.514000000000D+03 0.000000000000D+00
    2.800000000000D+00 0.000000000000D+00-6.519258022308D-09 1.030000000000D+02
    4.759800000000D+05
18 09  1 16 13 59 44.0-9.254040196538D-05 3.637978807092D-12 0.000000000000D+00
    1.200000000000D+01-3.093750000000D+00 5.073068456521D-09-1.046409391403D+00
   -1.527369022369D-07 9.891202906147D-03 4.796311259270D-06 5.153747915268D+03
    4.823840000000D+05 2.961605787277D-07 3.062625668389D+00 1.266598701477D-07
    9.445146631469D-01 2.786875000000D+02-2.437021986811D+00-8.506782913082D-09
   -2.971552348511D-10 1.000000000000D+00 1.514000000000D+03 0.000000000000D+00
    2.000000000000D+00 0.000000000000D+00-1.071020960808D-08 1.200000000000D+01
    4.767000000000D+05
20 09  1 16 13 59 44.0 9.351223707199D-05-1.023181539495D-12 0.000000000000D+00
    8.000000000000D+00-9.875000000000D+00 5.137714006411D-09-9.012016496603D-01
   -4.898756742477D-07 3.858044859953D-03 4.738569259644D-06 5.153694890976D+03
    4.823840000000D+05-2.421438694000D-08 3.008894568650D+00 3.725290298462D-08
    9.440795737551D-01 2.785625000000D+02 1.308570936763D+00-8.539641424628D-09
   -2.667968274445D-10 1.000000000000D+00 1.514000000000D+03 0.000000000000D+00
    2.000000000000D+00 0.000000000000D+00-6.519258022308D-09 8.000000000000D+00
    4.767000000000D+05
28 09  1 16 13 59 44.0-2.375617623329D-05 0.000000000000D+00 0.000000000000D+00
    1.900000000000D+01-5.762500000000D+01 4.616978029953D-09-1.842059171215D+00
   -2.913177013397D-06 1.452949282248D-02 5.815178155899D-06 5.153634954453D+03
    4.823840000000D+05 2.216547727585D-07-8.185021679578D-02 3.725290298462D-09
    9.658758520805D-01 2.646250000000D+02-2.065930984878D+00-7.974617889130D-09
   -3.214419607765D-11 1.000000000000D+00 1.514000000000D+03 0.000000000000D+00
    2.000000000000D+00 0.000000000000D+00-1.024454832077D-08 1.900000000000D+01
    4.773600000000D+05
23 09  1 16 14  0  0.0 3.851936198771D-04 7.958078640513D-13 0.000000000000D+00
    7.100000000000D+01-5.625000000000D+00 4.139100981598D-09 2.731455692253D+00
   -2.849847078323D-07 5.766647052951D-03 9.527429938316D-06 5.153655286789D+03
    4.824000000000D+05-7.450580596924D-08-2.200994219215D+00 8.754432201385D-08
    9.709829605377D-01 2.013750000000D+02 2.882762561832D+00-7.826754587173D-09
   -5.643092200298D-11 1.000000000000D+00 1.514000000000D+03 0.000000000000D+00
    2.000000000000D+00 0.000000000000D+00-2.002343535423D-08 7.100000000000D+01
    4.817400000000D+05
17 09  1 16 13 59 44.0 4.443386569619D-05 1.023181539495D-12 0.000000000000D+00
    1.000000000000D+01-7.843750000000D+00 4.412683805993D-09-2.256162382882D+00
   -3.613531589508D-07 4.120921017602D-03 1.156888902187D-05 5.153636852264D+03
    4.823840000000D+05 4.656612873077D-08 9.512754542010D-01-9.313225746155D-08
    9.596293688951D-01 1.540000000000D+02-2.770285407495D+00-7.866756253403D-09
   -1.007184810433D-10 1.000000000000D+00 1.514000000000D+03 0.000000000000D+00
    2.000000000000D+00 0.000000000000D+00-1.024454832077D-08 1.000000000000D+01
    4.820400000000D+05
19 09  1 16 16  0  0.0 3.375345841050D-05-4.547473508865D-13 0.000000000000D+00
    6.900000000000D+01-7.375000000000D+00 4.586262464812D-09-1.942555760868D+00
   -4.395842552185D-07 5.064662429504D-03 1.096911728382D-05 5.153777517319D+03
    4.896000000000D+05-1.229345798492D-07 1.007648423070D+00-4.842877388000D-08
    9.573263262212D-01 1.684687500000D+02-3.932700630138D-01-7.969617680851D-09
   -2.500104139373D-11 1.000000000000D+00 1.514000000000D+03 0.000000000000D+00
    2.000000000000D+00 0.000000000000D+00-1.443549990654D-08 6.900000000000D+01
    4.824000000000D+05
17 09  1 16 16  0  0.0 4.444131627679D-05 1.023181539495D-12 0.000000000000D+00
    1.100000000000D+01-4.218750000000D+00 4.538403328430D-09-1.204249901819D+00
   -2.235174179077D-07 4.121642909013D-03 1.074187457561D-05 5.153631832123D+03
    4.896000000000D+05 8.195638656616D-08 9.512185481506D-01-2.980232238770D-08
    9.596288100604D-01 1.732187500000D+02-2.769659007918D+00-7.879256774100D-09
   -7.428880871279D-11 1.000000000000D+00 1.514000000000D+03 0.000000000000D+00
    2.000000000000D+00 0.000000000000D+00-1.024454832077D-08 1.100000000000D+01
    4.824000000000D+05
14 09  1 16 16  0  0.0-1.674517989159D-04 5.229594535194D-12 0.000000000000D+00
    1.000000000000D+01-2.281250000000D+01 3.645508992939D-09-1.999274614773D+00
   -1.154839992523D-06 4.437791998498D-03 9.497627615929D-06 5.153568048477D+03
    4.896000000000D+05 8.940696716309D-08-2.170830725345D+00-1.210719347000D-07
    9.889196937775D-01 2.129062500000D+02-2.100867307499D+00-7.611745631187D-09
   -6.107397254753D-11 1.000000000000D+00 1.514000000000D+03 0.000000000000D+00
    2.000000000000D+00 0.000000000000D+00-9.313225746155D-09 1.000000000000D+01
    4.824000000000D+05
 3 09  1 16 16  0  0.0 3.397744148970D-04 5.343281372916D-12 0.000000000000D+00
    4.900000000000D+01-3.375000000000D+01 5.248075746277D-09-2.617370024379D+00
   -1.879408955574D-06 1.160082360730D-02 1.018494367599D-05 5.153731008530D+03
    4.896000000000D+05 9.872019290924D-08 8.250468713824D-01-1.545995473862D-07
    9.261934764988D-01 1.623125000000D+02 8.880079499184D-01-8.174983378014D-09
   -4.678766317969D-11 1.000000000000D+00 1.514000000000D+03 0.000000000000D+00
    2.800000000000D+00 0.000000000000D+00-4.190951585770D-09 4.900000000000D+01
    4.824000000000D+05
11 09  1 16 16  0  0.0 1.034745946527D-05-1.136868377216D-12 0.000000000000D+00
    1.000000000000D+01 6.137500000000D+01 6.224902149304D-09 2.061222822958D+00
    3.138557076454D-06 9.154018596746D-03 8.028000593185D-06 5.153669525146D+03
    4.896000000000D+05-2.402812242508D-07 1.777980736331D+00-8.381903171539D-08
    8.895957280557D-01 1.875625000000D+02 6.765580194371D-01-8.834296555340D-09
    1.164334213479D-10 1.000000000000D+00 1.514000000000D+03 0.000000000000D+00
    2.000000000000D+00 0.000000000000D+00-1.210719347000D-08 1.000000000000D+01
    4.824000000000D+05
20 09  1 16 15 59 44.0 9.350478649139D-05-1.023181539495D-12 0.000000000000D+00
    9.000000000000D+00 2.750000000000D+00 5.068782563711D-09 1.491642636675D-01
    7.823109626770D-08 3.859683871269D-03 4.829838871956D-06 5.153698312759D+03
    4.895840000000D+05-2.235174179077D-08 3.008833003206D+00 1.862645149231D-08
    9.440776500178D-01 2.762812500000D+02 1.308376042428D+00-8.548213210249D-09
   -2.635824078367D-10 1.000000000000D+00 1.514000000000D+03 0.000000000000D+00
    2.000000000000D+00 0.000000000000D+00-6.519258022308D-09 9.000000000000D+00
    4.824000000000D+05
